[{"OBJECT_NAME":"ONEWEB-0313","OBJECT_ID":"2021-075AA","EPOCH":"2026-03-09T22:38:18.757824","MEAN_MOTION":13.17649082,"ECCENTRICITY":0.00018653,"INCLINATION":87.9154,"RA_OF_ASC_NODE":25.5878,"ARG_OF_PERICENTER":79.1307,"MEAN_ANOMALY":281.0034,"EPHEMERIS_TYPE":0,"CLASSIFICATION_TYPE":"U","NORAD_CAT_ID":49099,"ELEMENT_SET_NO":999,"REV_AT_EPOCH":22052,"BSTAR":0.0005458972,"MEAN_MOTION_DOT":2.25e-6,"MEAN_MOTION_DDOT":0},{"OBJECT_NAME":"SL-14 DEB","OBJECT_ID":"1991-056BY","EPOCH":"2026-03-09T06:42:43.217568","MEAN_MOTION":13.26678174,"ECCENTRICITY":0.004608,"INCLINATION":82.5583,"RA_OF_ASC_NODE":184.9455,"ARG_OF_PERICENTER":230.953,"MEAN_ANOMALY":128.7493,"EPHEMERIS_TYPE":0,"CLASSIFICATION_TYPE":"U","NORAD_CAT_ID":45334,"ELEMENT_SET_NO":999,"REV_AT_EPOCH":29218,"BSTAR":0.00047970343,"MEAN_MOTION_DOT":2.27e-6,"MEAN_MOTION_DDOT":0}]
